STARLINK-37170          
1 68614U 26073N   26112.49607690  .00248214  00000+0  12535-2 0  9994
2 68614  97.2838 310.4479 0002056 127.5452 232.6003 15.80930412  2451
STARLINK-37176          
1 68615U 26073P   26111.92562347  .00459688  00000+0  22622-2 0  9998
2 68615  97.2844 309.8457 0000963  35.0659 325.0673 15.80952281  2362
STARLINK-37152          
1 68616U 26073Q   26113.25002315 -.00093888  00000+0 -63446-3 0  9999
2 68616  97.2843 311.2315 0001563  95.2549 196.0620 15.75228002  2870
STARLINK-37186          
1 68617U 26073R   26112.62042759  .00115707  00000+0  59470-3 0  9991
2 68617  97.2841 310.5837 0000807  89.9962 270.1398 15.80894803  2475
STARLINK-37179          
1 68618U 26073S   26112.61967733  .00123138  00000+0  63323-3 0  9998
2 68618  97.2845 310.5853 0000823  70.7324 289.4034 15.80862812  2471
STARLINK-37226          
1 68619U 26073T   26113.25002315 -.00726021  00000+0 -52014-2 0  9992
2 68619  97.2844 311.2512 0001324  84.6071 254.5442 15.75594018  3618
STARLINK-37211          
1 68620U 26073U   26111.92186227  .00198257  00000+0  10112-2 0  9996
2 68620  97.2849 309.8509 0001327  82.8537 277.2882 15.80842868  2360
STARLINK-37269          
1 68621U 26073V   26112.56936295  .00044591  00000+0  29800-3 0  9992
2 68621  97.2848 310.5008 0001646  47.8696 312.2709 15.75210043  2461
STARLINK-37252          
1 68622U 26073W   26112.48931764  .00256191  00000+0  12931-2 0  9997
2 68622  97.2841 310.4565 0001842  59.0568 301.0881 15.80921547  2453
STARLINK-37284          
1 68623U 26073X   26112.61591984  .00122688  00000+0  63105-3 0  9992
2 68623  97.2842 310.5911 0000471  48.2915 311.8393 15.80859174  2479
STARLINK-37231          
1 68624U 26073Y   26112.56724601  .00041025  00000+0  27450-3 0  9999
2 68624  97.2849 310.5038 0001499  91.4806 268.6631 15.75198032  2463
STARLINK-37249          
1 68625U 26073Z   26111.98142928  .00203192  00000+0  10393-2 0  9993
2 68625  97.2850 309.9230 0000710 103.7568 256.3779 15.80768408  2372
STARLINK-37285          
1 68626U 26073AA  26112.50124477  .00109786  00000+0  72576-3 0  9998
2 68626  97.2848 310.4398 0001538  86.1586 273.9855 15.75244929  2455
STP-S29A OBJECT A       
1 68627U 26074A   26112.35776192  .00006123  00000+0  26659-3 0  9992
2 68627  60.0199  32.3947 0017360 322.3220  37.6643 15.23308302  2272
MISR-C-1                
1 68628U 26074B   26112.48802628  .00005547  00000+0  24217-3 0  9998
2 68628  60.0249  31.9015 0015889 325.4968  34.5080 15.23396560  2282
RAWHIDE-1               
1 68629U 26074C   26112.48374376  .00007758  00000+0  32875-3 0  9998
2 68629  60.0234  31.8764 0019331 330.3598  29.6385 15.23866441  2291
